{
  "type": "FeatureCollection",
  "features": [
    {
      "type": "Feature",
      "properties": {
        "norad_id": 55973,
        "name": "TIANMU-1 03",
        "group": "weather",
        "lat": 35.70607941574817,
        "lon": -10.702452595556831,
        "alt_km": 441.2229674838709,
        "timestamp": "2025-12-26T19:22:38.537128+00:00",
        "meta_object_name": "TIANMU-1 03",
        "meta_object_id": "2023-039A",
        "meta_epoch": "2025-12-26T15:38:21.723648",
        "meta_mean_motion": 15.41335374,
        "meta_eccentricity": 0.00036847,
        "meta_inclination": 97.5114,
        "meta_ra_of_asc_node": 163.6955,
        "meta_arg_of_pericenter": 20.0398,
        "meta_mean_anomaly": 340.0992,
        "meta_ephemeris_type": 0,
        "meta_classification_type": "U",
        "meta_norad_cat_id": 55973,
        "meta_element_set_no": 999,
        "meta_rev_at_epoch": 15420,
        "meta_bstar": 0.00040350703,
        "meta_mean_motion_dot": 0.00016755,
        "meta_mean_motion_ddot": 0,
        "tle_line1": "1 55973U 23039A   25360.65164032  .00016755  00000+0  40351-3 0  9998",
        "tle_line2": "2 55973  97.5114 163.6955 0003684  20.0398 340.0992 15.41335374154201"
      },
      "geometry": {
        "type": "Point",
        "coordinates": [
          -10.702452595556831,
          35.70607941574817
        ]
      }
    },
    {
      "type": "Feature",
      "properties": {
        "norad_id": 55974,
        "name": "TIANMU-1 04",
        "group": "weather",
        "lat": -81.02197409612252,
        "lon": -140.40548065396905,
        "alt_km": 448.89551159003986,
        "timestamp": "2025-12-26T19:22:38.537141+00:00",
        "meta_object_name": "TIANMU-1 04",
        "meta_object_id": "2023-039B",
        "meta_epoch": "2025-12-26T15:04:21.088704",
        "meta_mean_motion": 15.41678585,
        "meta_eccentricity": 0.00042862,
        "meta_inclination": 97.5046,
        "meta_ra_of_asc_node": 162.8568,
        "meta_arg_of_pericenter": 13.3864,
        "meta_mean_anomaly": 346.7495,
        "meta_ephemeris_type": 0,
        "meta_classification_type": "U",
        "meta_norad_cat_id": 55974,
        "meta_element_set_no": 999,
        "meta_rev_at_epoch": 15420,
        "meta_bstar": 0.00040054045,
        "meta_mean_motion_dot": 0.00016823,
        "meta_mean_motion_ddot": 0,
        "tle_line1": "1 55974U 23039B   25360.62802186  .00016823  00000+0  40054-3 0  9991",
        "tle_line2": "2 55974  97.5046 162.8568 0004286  13.3864 346.7495 15.41678585154204"
      },
      "geometry": {
        "type": "Point",
        "coordinates": [
          -140.40548065396905,
          -81.02197409612252
        ]
      }
    },
    {
      "type": "Feature",
      "properties": {
        "norad_id": 55975,
        "name": "TIANMU-1 05",
        "group": "weather",
        "lat": -71.07323897781097,
        "lon": -173.84123444455173,
        "alt_km": 450.57354879337254,
        "timestamp": "2025-12-26T19:22:38.537221+00:00",
        "meta_object_name": "TIANMU-1 05",
        "meta_object_id": "2023-039C",
        "meta_epoch": "2025-12-26T15:01:02.550144",
        "meta_mean_motion": 15.41290558,
        "meta_eccentricity": 0.00038653,
        "meta_inclination": 97.5093,
        "meta_ra_of_asc_node": 163.3472,
        "meta_arg_of_pericenter": 39.9736,
        "meta_mean_anomaly": 320.1794,
        "meta_ephemeris_type": 0,
        "meta_classification_type": "U",
        "meta_norad_cat_id": 55975,
        "meta_element_set_no": 999,
        "meta_rev_at_epoch": 15418,
        "meta_bstar": 0.0003960868,
        "meta_mean_motion_dot": 0.0001642,
        "meta_mean_motion_ddot": 0,
        "tle_line1": "1 55975U 23039C   25360.62572396  .00016420  00000+0  39609-3 0  9996",
        "tle_line2": "2 55975  97.5093 163.3472 0003865  39.9736 320.1794 15.41290558154186"
      },
      "geometry": {
        "type": "Point",
        "coordinates": [
          -173.84123444455173,
          -71.07323897781097
        ]
      }
    },
    {
      "type": "Feature",
      "properties": {
        "norad_id": 55976,
        "name": "TIANMU-1 06",
        "group": "weather",
        "lat": -81.25979597262749,
        "lon": -75.09820774930614,
        "alt_km": 450.05883463568716,
        "timestamp": "2025-12-26T19:22:38.537238+00:00",
        "meta_object_name": "TIANMU-1 06",
        "meta_object_id": "2023-039D",
        "meta_epoch": "2025-12-26T15:06:48.919104",
        "meta_mean_motion": 15.41729586,
        "meta_eccentricity": 0.00041161,
        "meta_inclination": 97.5104,
        "meta_ra_of_asc_node": 163.8279,
        "meta_arg_of_pericenter": 33.6372,
        "meta_mean_anomaly": 326.5135,
        "meta_ephemeris_type": 0,
        "meta_classification_type": "U",
        "meta_norad_cat_id": 55976,
        "meta_element_set_no": 999,
        "meta_rev_at_epoch": 15420,
        "meta_bstar": 0.00039853481,
        "meta_mean_motion_dot": 0.00016767,
        "meta_mean_motion_ddot": 0,
        "tle_line1": "1 55976U 23039D   25360.62973286  .00016767  00000+0  39853-3 0  9995",
        "tle_line2": "2 55976  97.5104 163.8279 0004116  33.6372 326.5135 15.41729586154207"
      },
      "geometry": {
        "type": "Point",
        "coordinates": [
          -75.09820774930614,
          -81.25979597262749
        ]
      }
    },
    {
      "type": "Feature",
      "properties": {
        "norad_id": 56232,
        "name": "FENGYUN 3G",
        "group": "weather",
        "lat": -9.345838541093995,
        "lon": 146.9167205712397,
        "alt_km": 410.4574313287867,
        "timestamp": "2025-12-26T19:22:38.537254+00:00",
        "meta_object_name": "FENGYUN 3G",
        "meta_object_id": "2023-055A",
        "meta_epoch": "2025-12-26T14:47:40.969824",
        "meta_mean_motion": 15.52145415,
        "meta_eccentricity": 0.00039295,
        "meta_inclination": 49.9929,
        "meta_ra_of_asc_node": 155.8459,
        "meta_arg_of_pericenter": 295.5477,
        "meta_mean_anomaly": 64.5083,
        "meta_ephemeris_type": 0,
        "meta_classification_type": "U",
        "meta_norad_cat_id": 56232,
        "meta_element_set_no": 999,
        "meta_rev_at_epoch": 15318,
        "meta_bstar": 0.00049421747,
        "meta_mean_motion_dot": 0.00030151,
        "meta_mean_motion_ddot": 0,
        "tle_line1": "1 56232U 23055A   25360.61644641  .00030151  00000+0  49422-3 0  9994",
        "tle_line2": "2 56232  49.9929 155.8459 0003929 295.5477  64.5083 15.52145415153188"
      },
      "geometry": {
        "type": "Point",
        "coordinates": [
          146.9167205712397,
          -9.345838541093995
        ]
      }
    },
    {
      "type": "Feature",
      "properties": {
        "norad_id": 57166,
        "name": "METEOR-M2 3",
        "group": "weather",
        "lat": -35.47440423361919,
        "lon": 60.317125464069626,
        "alt_km": 815.7098540193447,
        "timestamp": "2025-12-26T19:22:38.537265+00:00",
        "meta_object_name": "METEOR-M2 3",
        "meta_object_id": "2023-091A",
        "meta_epoch": "2025-12-26T14:29:12.387840",
        "meta_mean_motion": 14.24027725,
        "meta_eccentricity": 0.00031832,
        "meta_inclination": 98.636,
        "meta_ra_of_asc_node": 53.8996,
        "meta_arg_of_pericenter": 325.0291,
        "meta_mean_anomaly": 35.0679,
        "meta_ephemeris_type": 0,
        "meta_classification_type": "U",
        "meta_norad_cat_id": 57166,
        "meta_element_set_no": 999,
        "meta_rev_at_epoch": 12995,
        "meta_bstar": 2.2270077e-05,
        "meta_mean_motion_dot": 8e-08,
        "meta_mean_motion_ddot": 0,
        "tle_line1": "1 57166U 23091A   25360.60361560  .00000008  00000+0  22270-4 0  9997",
        "tle_line2": "2 57166  98.6360  53.8996 0003183 325.0291  35.0679 14.24027725129956"
      },
      "geometry": {
        "type": "Point",
        "coordinates": [
          60.317125464069626,
          -35.47440423361919
        ]
      }
    },
    {
      "type": "Feature",
      "properties": {
        "norad_id": 57399,
        "name": "TIANMU-1 07",
        "group": "weather",
        "lat": 16.023057387508945,
        "lon": 48.24109453407765,
        "alt_km": 478.8179840662078,
        "timestamp": "2025-12-26T19:22:38.537277+00:00",
        "meta_object_name": "TIANMU-1 07",
        "meta_object_id": "2023-101A",
        "meta_epoch": "2025-12-26T14:35:33.677952",
        "meta_mean_motion": 15.28269001,
        "meta_eccentricity": 0.00049034,
        "meta_inclination": 97.2856,
        "meta_ra_of_asc_node": 50.1517,
        "meta_arg_of_pericenter": 45.5264,
        "meta_mean_anomaly": 314.6376,
        "meta_ephemeris_type": 0,
        "meta_classification_type": "U",
        "meta_norad_cat_id": 57399,
        "meta_element_set_no": 999,
        "meta_rev_at_epoch": 13527,
        "meta_bstar": 0.00027722231,
        "meta_mean_motion_dot": 7.565e-05,
        "meta_mean_motion_ddot": 0,
        "tle_line1": "1 57399U 23101A   25360.60802868  .00007565  00000+0  27722-3 0  9999",
        "tle_line2": "2 57399  97.2856  50.1517 0004903  45.5264 314.6376 15.28269001135275"
      },
      "geometry": {
        "type": "Point",
        "coordinates": [
          48.24109453407765,
          16.023057387508945
        ]
      }
    }
  ]
}